     2.10           G: GLONASS NAV DATA                     RINEX VERSION / TYPE
teqc  2015Jun23                         20220202 01:25:42UTCPGM / RUN BY / DATE
Linux 2.4.21-27.ELsmp|Opteron|gcc -static|Linux x86_64|=+   COMMENT
  2022     1     9   -1.862645149231D-09                    CORR TO SYSTEM TIME
                                                            END OF HEADER
 1 22  1 10  2 45  0.0 7.211230695248D-06-0.000000000000D+00 9.000000000000D+03
   -2.131468701172D+04-6.703042984009D-01 0.000000000000D+00 0.000000000000D+00
    1.274182080078D+04 4.612398147583D-01-0.000000000000D+00 1.000000000000D+00
    5.849526367188D+03-3.445144653320D+00-9.313225746155D-10 0.000000000000D+00
12 22  1 10  2 45  0.0 2.936562523246D-04 3.637978807092D-12 9.000000000000D+03
   -9.288681152344D+03 3.509397506714D-01 9.313225746155D-10 0.000000000000D+00
    1.853443994141D+04-2.005055427551D+00 0.000000000000D+00-1.000000000000D+00
    1.486525390625D+04 2.725256919861D+00-1.862645149231D-09 0.000000000000D+00
13 22  1 10  2 45  0.0-1.684296876192D-05-0.000000000000D+00 9.000000000000D+03
   -2.137565917969D+03 1.362686157227D-01 9.313225746155D-10 0.000000000000D+00
    2.539287646484D+04 1.609830856323D-01 9.313225746155D-10-2.000000000000D+00
   -1.085313964844D+03 3.561964035034D+00-9.313225746155D-10 0.000000000000D+00
14 22  1 10  2 45  0.0 7.304362952709D-05 0.000000000000D+00 9.000000000000D+03
    6.623034667969D+03-1.817789077759D-01 9.313225746155D-10 0.000000000000D+00
    1.723358007812D+04 2.404844284058D+00 1.862645149231D-09-7.000000000000D+00
   -1.759893701172D+04 2.284569740295D+00 0.000000000000D+00 0.000000000000D+00
24 22  1 10  2 45  0.0 7.498543709517D-05 9.094947017729D-13 9.000000000000D+03
    5.964935546875D+03-1.993373870850D+00 0.000000000000D+00 0.000000000000D+00
    1.591872607422D+04-1.683322906494D+00 1.862645149231D-09 2.000000000000D+00
   -1.898919921875D+04-2.035808563232D+00 9.313225746155D-10 0.000000000000D+00
 2 22  1 10  2 45  0.0 5.060415714979D-04 9.094947017729D-13 9.150000000000D+03
   -5.587316406250D+03-2.640204429626D+00 9.313225746155D-10 0.000000000000D+00
    1.313471289062D+04 1.177972793579D+00-0.000000000000D+00-4.000000000000D+00
    2.116148242188D+04-1.436882972717D+00-2.793967723846D-09 0.000000000000D+00
17 22  1 10  3 15  0.0 4.912400618196D-04 2.728484105319D-12 1.080000000000D+04
    1.737286132812D+04-1.159012794495D+00 9.313225746155D-10 0.000000000000D+00
    1.539204980469D+04-8.876771926880D-01 1.862645149231D-09 4.000000000000D+00
   -1.052275292969D+04-3.210483551025D+00 0.000000000000D+00 0.000000000000D+00
 1 22  1 10  3 15  0.0 7.211230695248D-06-0.000000000000D+00 1.080000000000D+04
   -2.178322949219D+04 1.360397338867D-01-0.000000000000D+00 0.000000000000D+00
    1.327261718750D+04 9.016418457031D-02-0.000000000000D+00 1.000000000000D+00
   -4.977001953125D+02-3.561550140381D+00-0.000000000000D+00 0.000000000000D+00
 2 22  1 10  3 15  0.0 5.060443654656D-04 9.094947017729D-13 1.080000000000D+04
   -9.831435058594D+03-2.045425415039D+00 0.000000000000D+00 0.000000000000D+00
    1.541631445312D+04 1.318059921265D+00-0.000000000000D+00-4.000000000000D+00
    1.779171972656D+04-2.283254623413D+00-1.862645149231D-09 0.000000000000D+00
12 22  1 10  3 15  0.0 2.936618402600D-04 3.637978807092D-12 1.080000000000D+04
   -8.907273925781D+03 4.381179809570D-02 0.000000000000D+00 0.000000000000D+00
    1.434161914062D+04-2.616506576538D+00-0.000000000000D+00-1.000000000000D+00
    1.913300732422D+04 1.986023902893D+00-2.793967723846D-09 0.000000000000D+00
13 22  1 10  3 15  0.0-1.684390008450D-05-0.000000000000D+00 1.080000000000D+04
   -1.862711425781D+03 1.284666061401D-01 9.313225746155D-10 0.000000000000D+00
    2.487765283203D+04-7.303113937378D-01 9.313225746155D-10-2.000000000000D+00
    5.285306640625D+03 3.470497131348D+00-1.862645149231D-09 0.000000000000D+00
14 22  1 10  3 15  0.0 7.304362952709D-05 0.000000000000D+00 1.080000000000D+04
    6.618356445312D+03 1.482524871826D-01 9.313225746155D-10 0.000000000000D+00
    2.101286767578D+04 1.758658409119D+00 1.862645149231D-09-7.000000000000D+00
   -1.285943554688D+04 2.947326660156D+00 0.000000000000D+00 0.000000000000D+00
24 22  1 10  3 15  0.0 7.498823106289D-05 9.094947017729D-13 1.080000000000D+04
    1.841146484375D+03-2.560330390930D+00 0.000000000000D+00 0.000000000000D+00
    1.295447949219D+04-1.568688392639D+00 1.862645149231D-09 2.000000000000D+00
   -2.187030468750D+04-1.144575119019D+00 9.313225746155D-10 0.000000000000D+00
17 22  1 10  3 45  0.0 4.912456497550D-04 2.728484105319D-12 1.260000000000D+04
    1.456194433594D+04-1.951934814453D+00 9.313225746155D-10 0.000000000000D+00
    1.368089501953D+04-9.691400527954D-01 1.862645149231D-09 4.000000000000D+00
   -1.581878564453D+04-2.635685920715D+00 9.313225746155D-10 0.000000000000D+00
 1 22  1 10  3 45  0.0 7.211230695248D-06-0.000000000000D+00 1.260000000000D+04
   -2.090511132812D+04 8.096036911011D-01-0.000000000000D+00 0.000000000000D+00
    1.294516552734D+04-4.817180633545D-01-0.000000000000D+00 1.000000000000D+00
   -6.806467285156D+03-3.402694702148D+00 0.000000000000D+00 0.000000000000D+00
 2 22  1 10  3 45  0.0 5.060462281108D-04 9.094947017729D-13 1.260000000000D+04
   -1.287372558594D+04-1.322687149048D+00 0.000000000000D+00 0.000000000000D+00
    1.772590576172D+04 1.203235626221D+00-0.000000000000D+00-4.000000000000D+00
    1.304713085938D+04-2.954460144043D+00-1.862645149231D-09 0.000000000000D+00
12 22  1 10  3 45  0.0 2.936674281955D-04 3.637978807092D-12 1.260000000000D+04
   -9.209717285156D+03-3.937606811523D-01 0.000000000000D+00 0.000000000000D+00
    9.270124023438D+03-2.970766067505D+00-9.313225746155D-10-1.000000000000D+00
    2.192305126953D+04 1.094034194946D+00-2.793967723846D-09 0.000000000000D+00
13 22  1 10  3 45  0.0-1.684576272964D-05-0.000000000000D+00 1.260000000000D+04
   -1.815759277344D+03-1.123132705688D-01 9.313225746155D-10 0.000000000000D+00
    2.280997021484D+04-1.544979095459D+00 0.000000000000D+00-2.000000000000D+00
    1.124683203125D+04 3.110329627991D+00-1.862645149231D-09 0.000000000000D+00
14 22  1 10  3 45  0.0 7.304456084967D-05 0.000000000000D+00 1.260000000000D+04
    7.035028320312D+03 2.766933441162D-01 9.313225746155D-10 0.000000000000D+00
    2.346405957031D+04 9.455051422119D-01 9.313225746155D-10-7.000000000000D+00
   -7.125701660156D+03 3.382112503052D+00-0.000000000000D+00 0.000000000000D+00
24 22  1 10  3 45  0.0 7.499102503061D-05 9.094947017729D-13 1.260000000000D+04
   -3.122874511719D+03-2.912713050842D+00 0.000000000000D+00 0.000000000000D+00
    1.040223095703D+04-1.237275123596D+00 9.313225746155D-10 2.000000000000D+00
   -2.305632910156D+04-1.646718978882D-01 9.313225746155D-10 0.000000000000D+00
 3 22  1 10  3 45  0.0 4.967395216227D-05 9.094947017729D-13 1.362000000000D+04
    2.738951660156D+03-2.411770820618D+00 9.313225746155D-10 0.000000000000D+00
    1.150007519531D+04 1.931053161621D+00-0.000000000000D+00 5.000000000000D+00
    2.263610009766D+04-6.958456039429D-01-2.793967723846D-09 0.000000000000D+00
17 22  1 10  4 15  0.0 4.912512376904D-04 2.728484105319D-12 1.440000000000D+04
    1.042456494141D+04-2.614338874817D+00 9.313225746155D-10 0.000000000000D+00
    1.205476416016D+04-7.993974685669D-01 1.862645149231D-09 4.000000000000D+00
   -1.988837792969D+04-1.856683731079D+00 9.313225746155D-10 0.000000000000D+00
 1 22  1 10  4 15  0.0 7.211230695248D-06-0.000000000000D+00 1.440000000000D+04
   -1.899899707031D+04 1.267211914062D+00-0.000000000000D+00 0.000000000000D+00
    1.146586865234D+04-1.173715591431D+00-0.000000000000D+00 1.000000000000D+00
   -1.258921679688D+04-2.980884552002D+00 9.313225746155D-10 0.000000000000D+00
 2 22  1 10  4 15  0.0 5.060480907559D-04 9.094947017729D-13 1.440000000000D+04
   -1.458376318359D+04-5.843248367310D-01 0.000000000000D+00 0.000000000000D+00
    1.958669677734D+04 8.211956024170D-01-0.000000000000D+00-4.000000000000D+00
    7.292681152344D+03-3.397891044617D+00-9.313225746155D-10 0.000000000000D+00
 3 22  1 10  4 15  0.0 4.967581480742D-05 0.000000000000D+00 1.440000000000D+04
   -1.172190429688D+03-1.906576156616D+00 0.000000000000D+00 0.000000000000D+00
    1.512652490234D+04 2.055718421936D+00-0.000000000000D+00 5.000000000000D+00
    2.052737744141D+04-1.632231712341D+00-2.793967723846D-09 0.000000000000D+00
13 22  1 10  4 15  0.0-1.684669405222D-05-0.000000000000D+00 1.440000000000D+04
   -2.378341796875D+03-5.374021530151D-01 9.313225746155D-10 0.000000000000D+00
    1.942513330078D+04-2.178273200989D+00-0.000000000000D+00-2.000000000000D+00
    1.633751904297D+04 2.509171485901D+00-1.862645149231D-09 0.000000000000D+00
14 22  1 10  4 15  0.0 7.304549217224D-05 0.000000000000D+00 1.440000000000D+04
    7.470001953125D+03 1.658792495728D-01 1.862645149231D-09 0.000000000000D+00
    2.438087304688D+04 7.292461395264D-02 9.313225746155D-10-7.000000000000D+00
   -8.411386718750D+02 3.555401802063D+00-9.313225746155D-10 0.000000000000D+00
15 22  1 10  4 15  0.0 9.900704026222D-05-0.000000000000D+00 1.440000000000D+04
    1.248426953125D+04 7.249097824097D-01 9.313225746155D-10 0.000000000000D+00
    1.467559667969D+04 2.174181938171D+00 1.862645149231D-09 0.000000000000D+00
   -1.669864257812D+04 2.450837135315D+00 0.000000000000D+00 0.000000000000D+00
24 22  1 10  4 15  0.0 7.499288767576D-05 1.818989403546D-12 1.440000000000D+04
   -8.474627929688D+03-2.983220100403D+00 0.000000000000D+00 0.000000000000D+00
    8.579382812500D+03-7.747230529785D-01 9.313225746155D-10 2.000000000000D+00
   -2.245556054688D+04 8.278045654297D-01 1.862645149231D-09 0.000000000000D+00
14 22  1 10  4 45  0.0 7.304642349482D-05 0.000000000000D+00 1.620000000000D+04
    7.491509765625D+03-1.779403686523D-01 9.313225746155D-10 0.000000000000D+00
    2.376029785156D+04-7.438383102417D-01 0.000000000000D+00-7.000000000000D+00
    5.508444824219D+03 3.453907966614D+00-1.862645149231D-09 0.000000000000D+00
